RADARSAT 2--------------
1 32382U 07061A   19341.79514110  .00000040  00000-0  32460-4 0  9991
2 32382  98.5771 346.1943 0001117  90.5787  82.2999 14.29985749625430